STARLINK-36758          
1 67926U 26036Y   26062.16668981 -.01599780  00000+0 -66524-2 0  9993
2 67926  42.9947 289.5897 0001685 274.9610 281.7491 15.87487864  2602
STARLINK-36728          
1 67927U 26036Z   26062.16668981 -.01607125  00000+0 -65962-2 0  9992
2 67927  42.9947 289.5718 0001666 274.9818 288.7548 15.87761178  2607
STARLINK-36771          
1 67928U 26036AA  26062.16668981 -.01606074  00000+0 -66437-2 0  9993
2 67928  42.9946 289.5802 0001577 273.6491 286.7389 15.87604668  2606
STARLINK-36809          
1 67929U 26036AB  26062.16668981 -.01609696  00000+0 -65616-2 0  9995
2 67929  42.9946 289.5631 0001678 271.0723 296.1196 15.87901420  2606
STARLINK-36865          
1 67930U 26036AC  26062.16668981 -.01612963  00000+0 -64882-2 0  9992
2 67930  42.9945 289.5456 0001695 272.5067 301.6028 15.88170000  2607
STARLINK-36781          
1 67931U 26036AD  26062.16668981 -.01607897  00000+0 -65085-2 0  9999
2 67931  42.9947 289.5546 0001634 274.9826 295.6478 15.88037732  2607
