[{"OBJECT_NAME":"STARLINK-36758","OBJECT_ID":"2026-036Y","EPOCH":"2026-03-03T04:00:01.999584","MEAN_MOTION":15.87487864,"ECCENTRICITY":0.0001685,"INCLINATION":42.9947,"RA_OF_ASC_NODE":289.5897,"ARG_OF_PERICENTER":274.961,"MEAN_ANOMALY":281.7491,"EPHEMERIS_TYPE":0,"CLASSIFICATION_TYPE":"U","NORAD_CAT_ID":67926,"ELEMENT_SET_NO":999,"REV_AT_EPOCH":260,"BSTAR":-0.0066524,"MEAN_MOTION_DOT":-0.0159978,"MEAN_MOTION_DDOT":0},{"OBJECT_NAME":"STARLINK-36728","OBJECT_ID":"2026-036Z","EPOCH":"2026-03-03T04:00:01.999584","MEAN_MOTION":15.87761178,"ECCENTRICITY":0.0001666,"INCLINATION":42.9947,"RA_OF_ASC_NODE":289.5718,"ARG_OF_PERICENTER":274.9818,"MEAN_ANOMALY":288.7548,"EPHEMERIS_TYPE":0,"CLASSIFICATION_TYPE":"U","NORAD_CAT_ID":67927,"ELEMENT_SET_NO":999,"REV_AT_EPOCH":260,"BSTAR":-0.0065962,"MEAN_MOTION_DOT":-0.01607125,"MEAN_MOTION_DDOT":0},{"OBJECT_NAME":"STARLINK-36771","OBJECT_ID":"2026-036AA","EPOCH":"2026-03-03T04:00:01.999584","MEAN_MOTION":15.87604668,"ECCENTRICITY":0.0001577,"INCLINATION":42.9946,"RA_OF_ASC_NODE":289.5802,"ARG_OF_PERICENTER":273.6491,"MEAN_ANOMALY":286.7389,"EPHEMERIS_TYPE":0,"CLASSIFICATION_TYPE":"U","NORAD_CAT_ID":67928,"ELEMENT_SET_NO":999,"REV_AT_EPOCH":260,"BSTAR":-0.0066437,"MEAN_MOTION_DOT":-0.01606074,"MEAN_MOTION_DDOT":0},{"OBJECT_NAME":"STARLINK-36809","OBJECT_ID":"2026-036AB","EPOCH":"2026-03-03T04:00:01.999584","MEAN_MOTION":15.8790142,"ECCENTRICITY":0.0001678,"INCLINATION":42.9946,"RA_OF_ASC_NODE":289.5631,"ARG_OF_PERICENTER":271.0723,"MEAN_ANOMALY":296.1196,"EPHEMERIS_TYPE":0,"CLASSIFICATION_TYPE":"U","NORAD_CAT_ID":67929,"ELEMENT_SET_NO":999,"REV_AT_EPOCH":260,"BSTAR":-0.0065616,"MEAN_MOTION_DOT":-0.01609696,"MEAN_MOTION_DDOT":0},{"OBJECT_NAME":"STARLINK-36865","OBJECT_ID":"2026-036AC","EPOCH":"2026-03-03T04:00:01.999584","MEAN_MOTION":15.8817,"ECCENTRICITY":0.0001695,"INCLINATION":42.9945,"RA_OF_ASC_NODE":289.5456,"ARG_OF_PERICENTER":272.5067,"MEAN_ANOMALY":301.6028,"EPHEMERIS_TYPE":0,"CLASSIFICATION_TYPE":"U","NORAD_CAT_ID":67930,"ELEMENT_SET_NO":999,"REV_AT_EPOCH":260,"BSTAR":-0.0064882,"MEAN_MOTION_DOT":-0.01612963,"MEAN_MOTION_DDOT":0},{"OBJECT_NAME":"STARLINK-36781","OBJECT_ID":"2026-036AD","EPOCH":"2026-03-03T04:00:01.999584","MEAN_MOTION":15.88037732,"ECCENTRICITY":0.0001634,"INCLINATION":42.9947,"RA_OF_ASC_NODE":289.5546,"ARG_OF_PERICENTER":274.9826,"MEAN_ANOMALY":295.6478,"EPHEMERIS_TYPE":0,"CLASSIFICATION_TYPE":"U","NORAD_CAT_ID":67931,"ELEMENT_SET_NO":999,"REV_AT_EPOCH":260,"BSTAR":-0.0065085,"MEAN_MOTION_DOT":-0.01607897,"MEAN_MOTION_DDOT":0}]
